IRIDIUM 150             
1 43257U 18030J   24190.57906502  .00000220  00000+0  71341-4 0  9996
2 43257  86.3965 226.5798 0002592  89.0656 271.0836 14.34219703328599
IRIDIUM 143             
1 43258U 18030K   24190.56003978  .00000354  00000+0  11928-3 0  9993
2 43258  86.3971 226.6525 0002576  85.9455 274.2036 14.34218884328552
IRIDIUM 161             
1 43478U 18047C   24190.60780076  .00000482  00000+0  13718-3 0  9992
2 43478  86.4486  24.5871 0002245  84.3621 275.7836 14.43287370322934
IRIDIUM 152             
1 43479U 18047D   24190.60252480  .00000049  00000+0  10487-4 0  9996
2 43479  86.3961  24.4489 0002175  89.6575 270.4870 14.34218254320926
IRIDIUM 147             
1 43480U 18047E   24190.60886692  .00000130  00000+0  39463-4 0  9992
2 43480  86.3963  24.4389 0002085  90.8748 269.2687 14.34218776320926
IRIDIUM 110             
1 43481U 18047F   24190.61520727  .00000273  00000+0  90518-4 0  9994
2 43481  86.3965  24.5097 0001917  99.0166 261.1247 14.34220343320919
IRIDIUM 162             
1 43482U 18047G   24190.60153147  .00000501  00000+0  14302-3 0  9992
2 43482  86.4484  24.4895 0002288  89.8555 270.2908 14.43269516322926
IRIDIUM 160             
1 43569U 18061A   24190.49127702  .00000167  00000+0  52734-4 0  9999
2 43569  86.3983 352.9447 0001693  91.0133 269.1257 14.34218637311798
